OBJECT_NAME,OBJECT_ID,EPOCH,MEAN_MOTION,ECCENTRICITY,INCLINATION,RA_OF_ASC_NODE,ARG_OF_PERICENTER,MEAN_ANOMALY,EPHEMERIS_TYPE,CLASSIFICATION_TYPE,NORAD_CAT_ID,ELEMENT_SET_NO,REV_AT_EPOCH,BSTAR,MEAN_MOTION_DOT,MEAN_MOTION_DDOT
STARLINK-6114,2023-046Z,2026-07-19T03:53:52.186848,15.27575981,.00016824,43.0035,139.4851,269.5869,90.4790,0,U,56116,999,18213,.39423214E-4,.823E-5,0
STARLINK-6107,2023-046AA,2026-07-19T11:25:02.052480,15.27571891,.00009938,42.9998,122.8627,262.1812,97.8927,0,U,56117,999,18235,-.57746337E-4,-.185E-4,0
STARLINK-6091,2023-046AC,2026-07-19T11:45:23.306112,15.27574194,.00010031,43.0023,122.9611,261.3594,98.7144,0,U,56119,999,18235,.6595374E-5,-.81E-6,0
STARLINK-6079,2023-046AD,2026-07-19T11:39:50.249664,15.27575711,.0000859,43.0021,122.9347,253.4342,106.6415,0,U,56120,999,18235,.830884E-5,-.33E-6,0
STARLINK-6092,2023-046AE,2026-07-19T05:17:39.845184,15.27570906,.00002744,43.0018,124.3807,225.7280,134.3550,0,U,56121,999,18231,-.1952314E-5,-.315E-5,0
STARLINK-6094,2023-046AF,2026-07-19T13:01:00.816384,15.27587764,.00016741,43.0043,133.7620,268.4142,91.6518,0,U,56122,999,18223,.35095095E-4,.704E-5,0
STARLINK-6115,2023-046AH,2026-07-19T12:05:44.272896,15.27574921,.00012894,43.0047,123.0685,264.1083,95.9622,0,U,56123,999,18235,.20550461E-4,.303E-5,0
STARLINK-6126,2023-046AJ,2026-07-19T11:28:44.085792,15.27573751,.00010225,43.0019,122.8805,248.7075,111.3668,0,U,56124,999,18235,.21318356E-4,.325E-5,0
STARLINK-6119,2023-046AK,2026-07-19T04:09:24.683904,15.27572599,.00013679,43.0024,124.8839,252.8411,107.2291,0,U,56125,999,18230,-.719069E-6,-.282E-5,0
STARLINK-6124,2023-046AL,2026-07-19T03:19:27.117120,15.27575658,.00018175,43.0027,124.6298,235.2695,124.7985,0,U,56126,999,18230,.13436486E-4,.107E-5,0
STARLINK-6104,2023-046AM,2026-07-18T19:16:51.238848,15.27573632,.0001672,43.0038,129.8228,280.3404,79.7259,0,U,56127,999,18221,.27389311E-4,.491E-5,0
STARLINK-6122,2023-046AN,2026-07-19T04:03:51.934176,15.27581944,.00008072,43.0024,124.8553,280.3938,79.6823,0,U,56128,999,18230,.25442067E-4,.438E-5,0
STARLINK-6121,2023-046AP,2026-07-18T22:18:21.060288,15.27575136,.00012968,43.0025,74.5860,263.2462,96.8242,0,U,56129,999,18286,-.8326331E-5,-.491E-5,0
STARLINK-6117,2023-046AQ,2026-07-19T04:49:54.302016,15.27577340,.00012839,43.0033,124.2391,267.6595,92.4110,0,U,56130,999,18231,.23168024E-4,.375E-5,0
STARLINK-6120,2023-046AR,2026-07-19T11:17:37.986720,15.27580378,.00010139,43.0024,122.8110,248.4696,111.6048,0,U,56131,999,18235,.591953E-6,-.246E-5,0
STARLINK-6071,2023-046AS,2026-07-19T12:09:13.618368,15.27576623,.0001564,43.0046,122.2316,271.3787,88.6886,0,U,56132,999,18236,.13846018E-4,.119E-5,0
STARLINK-5566,2023-046AT,2026-07-19T12:16:39.767232,15.27570581,.00016734,43.0044,122.2662,279.3681,80.6981,0,U,56133,999,18236,.14587111E-4,.139E-5,0
STARLINK-5564,2023-046AU,2026-07-19T04:23:59.593632,15.27580385,.00014557,43.0043,124.1028,273.1705,86.8980,0,U,56134,999,18230,.22809048E-4,.365E-5,0
STARLINK-5489,2023-046AW,2026-07-19T04:33:14.666976,15.27579373,.00017056,43.0042,124.1509,275.5333,84.5324,0,U,56136,999,18231,.44000597E-4,.949E-5,0
STARLINK-5090,2023-046AX,2026-07-18T22:29:34.298592,15.27579163,.00013128,43.0038,125.6897,270.7340,89.3361,0,U,56137,999,18227,.44481916E-4,.962E-5,0
STARLINK-4774,2023-046AY,2026-07-19T11:32:26.005056,15.27576251,.00009574,43.0029,122.8889,256.5517,103.5229,0,U,56138,999,18235,.7271396E-5,-.62E-6,0
STARLINK-5375,2023-046BA,2026-07-19T04:01:59.700576,15.27582010,.00010061,43.0017,124.8415,307.0827,52.9933,0,U,56140,999,18230,.19453534E-4,.273E-5,0
STARLINK-5377,2023-046BB,2026-07-19T03:17:35.922048,15.27577146,.00011876,43.0026,124.6111,268.1814,91.8902,0,U,56141,999,18230,.21549344E-4,.331E-5,0
STARLINK-5376,2023-046BC,2026-07-18T04:47:57.146208,15.27576291,.00013543,43.0033,129.6240,277.9042,82.1656,0,U,56142,999,18216,.2378898E-4,.392E-5,0
STARLINK-5016,2023-046BD,2026-07-19T13:11:09.684096,15.18361317,.0003382,42.9976,134.4834,171.0097,189.0812,0,U,56143,999,18222,.7403576E-3,.15292E-3,0
STARLINK-5374,2023-046BE,2026-07-18T05:08:17.502144,15.27703858,.00024129,43.0028,129.7205,263.4423,96.6154,0,U,56144,999,18216,-.87514483E-3,-.24359E-3,0
STARLINK-5111,2023-046BG,2026-07-19T03:23:08.865312,15.27580279,.00012146,43.0028,124.6406,267.5938,92.4774,0,U,56146,999,18230,-.16245407E-4,-.709E-5,0
STARLINK-5089,2023-046BJ,2026-07-18T01:55:23.677824,15.27571676,.00009463,43.0029,93.9137,263.8637,96.2107,0,U,56148,999,18256,.25242007E-4,.433E-5,0
PIESAT A,2023-047A,2026-07-19T12:48:30.404736,15.14291753,.00020868,97.5024,27.2034,102.9322,257.2142,0,U,56153,999,18269,.11941222E-3,.212E-4,0
PIESAT B,2023-047B,2026-07-19T12:48:30.549888,15.14289859,.000182,97.5007,27.2057,89.5785,270.5655,0,U,56154,999,18269,.33439199E-4,.547E-5,0
